{
    "week": 291,
    "satellites": [
        {
            "Name": "COSMOS 2433 (720)",
            "Line1": "1 32275U 07052A   24308.58872732 -.00000034  00000+0  00000+0 0  9998",
            "Line2": "2 32275  65.8791 335.7386 0005793 245.6912 114.3091  2.13104143132515",
            "SatelliteNumber": "32275",
            "Classification": "U",
            "LaunchYear": "07",
            "LaunchNumber": "052",
            "PieceOfLaunch": "A",
            "EpochYear": "24",
            "EpochDay": 308.58872732,
            "FirstDerivativeMeanMotion": -3.4e-07,
            "SecondDerivativeMeanMotion": "00000+0",
            "BSTAR": "00000+0",
            "SetNumber": "999",
            "Inclination": 65.8791,
            "RAAN": 335.7386,
            "Eccentricity": 0.0005793,
            "ArgumentOfPerigee": 245.6912,
            "MeanAnomaly": 114.3091,
            "MeanMotion": 2.13104143,
            "RevolutionNumber": "13251"
        },
        {
            "Name": "COSMOS 2432 (719)",
            "Line1": "1 32276U 07052B   24309.21424418 -.00000032  00000+0  00000+0 0  9992",
            "Line2": "2 32276  65.8940 335.8343 0010734 309.0477 116.6037  2.13103217132514",
            "SatelliteNumber": "32276",
            "Classification": "U",
            "LaunchYear": "07",
            "LaunchNumber": "052",
            "PieceOfLaunch": "B",
            "EpochYear": "24",
            "EpochDay": 309.21424418,
            "FirstDerivativeMeanMotion": -3.2e-07,
            "SecondDerivativeMeanMotion": "00000+0",
            "BSTAR": "00000+0",
            "SetNumber": "999",
            "Inclination": 65.894,
            "RAAN": 335.8343,
            "Eccentricity": 0.0010734,
            "ArgumentOfPerigee": 309.0477,
            "MeanAnomaly": 116.6037,
            "MeanMotion": 2.13103217,
            "RevolutionNumber": "13251"
        },
        {
            "Name": "COSMOS 2434 (721)",
            "Line1": "1 32393U 07065A   24309.43660494  .00000040  00000+0  00000+0 0  9994",
            "Line2": "2 32393  64.3162 211.8269 0003075  67.8364 114.7072  2.13101319131202",
            "SatelliteNumber": "32393",
            "Classification": "U",
            "LaunchYear": "07",
            "LaunchNumber": "065",
            "PieceOfLaunch": "A",
            "EpochYear": "24",
            "EpochDay": 309.43660494,
            "FirstDerivativeMeanMotion": 4e-07,
            "SecondDerivativeMeanMotion": "00000+0",
            "BSTAR": "00000+0",
            "SetNumber": "999",
            "Inclination": 64.3162,
            "RAAN": 211.8269,
            "Eccentricity": 0.0003075,
            "ArgumentOfPerigee": 67.8364,
            "MeanAnomaly": 114.7072,
            "MeanMotion": 2.13101319,
            "RevolutionNumber": "13120"
        },
        {
            "Name": "COSMOS 2436 (723)",
            "Line1": "1 32395U 07065C   24309.25424341  .00000041  00000+0  00000+0 0  9996",
            "Line2": "2 32395  64.3248 211.8990 0017035   3.3600 174.0936  2.13100063131156",
            "SatelliteNumber": "32395",
            "Classification": "U",
            "LaunchYear": "07",
            "LaunchNumber": "065",
            "PieceOfLaunch": "C",
            "EpochYear": "24",
            "EpochDay": 309.25424341,
            "FirstDerivativeMeanMotion": 4.1e-07,
            "SecondDerivativeMeanMotion": "00000+0",
            "BSTAR": "00000+0",
            "SetNumber": "999",
            "Inclination": 64.3248,
            "RAAN": 211.899,
            "Eccentricity": 0.0017035,
            "ArgumentOfPerigee": 3.36,
            "MeanAnomaly": 174.0936,
            "MeanMotion": 2.13100063,
            "RevolutionNumber": "13115"
        },
        {
            "Name": "COSMOS 2456 (730)",
            "Line1": "1 36111U 09070A   24309.28992437  .00000037  00000+0  00000+0 0  9998",
            "Line2": "2 36111  64.6817  91.1509 0001508 312.6940 271.7563  2.13103690115856",
            "SatelliteNumber": "36111",
            "Classification": "U",
            "LaunchYear": "09",
            "LaunchNumber": "070",
            "PieceOfLaunch": "A",
            "EpochYear": "24",
            "EpochDay": 309.28992437,
            "FirstDerivativeMeanMotion": 3.7e-07,
            "SecondDerivativeMeanMotion": "00000+0",
            "BSTAR": "00000+0",
            "SetNumber": "999",
            "Inclination": 64.6817,
            "RAAN": 91.1509,
            "Eccentricity": 0.0001508,
            "ArgumentOfPerigee": 312.694,
            "MeanAnomaly": 271.7563,
            "MeanMotion": 2.1310369,
            "RevolutionNumber": "11585"
        },
        {
            "Name": "COSMOS 2457 (733)",
            "Line1": "1 36112U 09070B   24308.83801169  .00000034  00000+0  00000+0 0  9997",
            "Line2": "2 36112  64.6660  91.0220 0006149 148.4904 222.1130  2.13101139115859",
            "SatelliteNumber": "36112",
            "Classification": "U",
            "LaunchYear": "09",
            "LaunchNumber": "070",
            "PieceOfLaunch": "B",
            "EpochYear": "24",
            "EpochDay": 308.83801169,
            "FirstDerivativeMeanMotion": 3.4e-07,
            "SecondDerivativeMeanMotion": "00000+0",
            "BSTAR": "00000+0",
            "SetNumber": "999",
            "Inclination": 64.666,
            "RAAN": 91.022,
            "Eccentricity": 0.0006149,
            "ArgumentOfPerigee": 148.4904,
            "MeanAnomaly": 222.113,
            "MeanMotion": 2.13101139,
            "RevolutionNumber": "11585"
        },
        {
            "Name": "COSMOS 2460 (732)",
            "Line1": "1 36402U 10007C   24309.29909788 -.00000031  00000+0  00000+0 0  9996",
            "Line2": "2 36402  65.7324 334.3560 0002872 254.2337 103.8019  2.13106293114154",
            "SatelliteNumber": "36402",
            "Classification": "U",
            "LaunchYear": "10",
            "LaunchNumber": "007",
            "PieceOfLaunch": "C",
            "EpochYear": "24",
            "EpochDay": 309.29909788,
            "FirstDerivativeMeanMotion": -3.1e-07,
            "SecondDerivativeMeanMotion": "00000+0",
            "BSTAR": "00000+0",
            "SetNumber": "999",
            "Inclination": 65.7324,
            "RAAN": 334.356,
            "Eccentricity": 0.0002872,
            "ArgumentOfPerigee": 254.2337,
            "MeanAnomaly": 103.8019,
            "MeanMotion": 2.13106293,
            "RevolutionNumber": "11415"
        },
        {
            "Name": "COSMOS 2476 (744)",
            "Line1": "1 37867U 11064A   24309.58334036  .00000043  00000+0  00000+0 0  9998",
            "Line2": "2 37867  64.9521  92.8279 0022460 230.7441 130.5073  2.13101570101205",
            "SatelliteNumber": "37867",
            "Classification": "U",
            "LaunchYear": "11",
            "LaunchNumber": "064",
            "PieceOfLaunch": "A",
            "EpochYear": "24",
            "EpochDay": 309.58334036,
            "FirstDerivativeMeanMotion": 4.3e-07,
            "SecondDerivativeMeanMotion": "00000+0",
            "BSTAR": "00000+0",
            "SetNumber": "999",
            "Inclination": 64.9521,
            "RAAN": 92.8279,
            "Eccentricity": 0.002246,
            "ArgumentOfPerigee": 230.7441,
            "MeanAnomaly": 130.5073,
            "MeanMotion": 2.1310157,
            "RevolutionNumber": "10120"
        },
        {
            "Name": "COSMOS 2477 (745)",
            "Line1": "1 37868U 11064B   24308.99374987  .00000039  00000+0  00000+0 0  9997",
            "Line2": "2 37868  64.9588  92.9217 0019608 230.9121 216.8480  2.13103018101185",
            "SatelliteNumber": "37868",
            "Classification": "U",
            "LaunchYear": "11",
            "LaunchNumber": "064",
            "PieceOfLaunch": "B",
            "EpochYear": "24",
            "EpochDay": 308.99374987,
            "FirstDerivativeMeanMotion": 3.9e-07,
            "SecondDerivativeMeanMotion": "00000+0",
            "BSTAR": "00000+0",
            "SetNumber": "999",
            "Inclination": 64.9588,
            "RAAN": 92.9217,
            "Eccentricity": 0.0019608,
            "ArgumentOfPerigee": 230.9121,
            "MeanAnomaly": 216.848,
            "MeanMotion": 2.13103018,
            "RevolutionNumber": "10118"
        },
        {
            "Name": "COSMOS 2475 (743)",
            "Line1": "1 37869U 11064C   24308.46428740  .00000035  00000+0  00000+0 0  9993",
            "Line2": "2 37869  64.9655  92.9558 0023936 247.5585 111.8046  2.13101731101177",
            "SatelliteNumber": "37869",
            "Classification": "U",
            "LaunchYear": "11",
            "LaunchNumber": "064",
            "PieceOfLaunch": "C",
            "EpochYear": "24",
            "EpochDay": 308.4642874,
            "FirstDerivativeMeanMotion": 3.5e-07,
            "SecondDerivativeMeanMotion": "00000+0",
            "BSTAR": "00000+0",
            "SetNumber": "999",
            "Inclination": 64.9655,
            "RAAN": 92.9558,
            "Eccentricity": 0.0023936,
            "ArgumentOfPerigee": 247.5585,
            "MeanAnomaly": 111.8046,
            "MeanMotion": 2.13101731,
            "RevolutionNumber": "10117"
        }
    ]
}